{
"type": "FeatureCollection",
"name": "iow_5kgrid_rain",
"crs": { "type": "name", "properties": { "name": "urn:ogc:def:crs:EPSG::27700" } },
"features": [
{ "type": "Feature", "properties": { "CODE": "SZ 47 NW", "RAINFALL": 762 }, "geometry": { "type": "MultiPolygon", "coordinates": [ [ [ [ 440000.0, 75000.0 ], [ 440000.0, 80000.0 ], [ 445000.0, 80000.0 ], [ 445000.0, 75000.0 ], [ 440000.0, 75000.0 ] ] ] ] } },
{ "type": "Feature", "properties": { "CODE": "SZ 47 NE", "RAINFALL": 803 }, "geometry": { "type": "MultiPolygon", "coordinates": [ [ [ [ 445000.0, 75000.0 ], [ 445000.0, 80000.0 ], [ 450000.0, 80000.0 ], [ 450000.0, 75000.0 ], [ 445000.0, 75000.0 ] ] ] ] } },
{ "type": "Feature", "properties": { "CODE": "SZ 57 NW", "RAINFALL": 884 }, "geometry": { "type": "MultiPolygon", "coordinates": [ [ [ [ 450000.0, 75000.0 ], [ 450000.0, 80000.0 ], [ 455000.0, 80000.0 ], [ 455000.0, 75000.0 ], [ 450000.0, 75000.0 ] ] ] ] } },
{ "type": "Feature", "properties": { "CODE": "SZ 57 NE", "RAINFALL": 889 }, "geometry": { "type": "MultiPolygon", "coordinates": [ [ [ [ 455000.0, 75000.0 ], [ 455000.0, 80000.0 ], [ 460000.0, 80000.0 ], [ 460000.0, 75000.0 ], [ 455000.0, 75000.0 ] ] ] ] } },
{ "type": "Feature", "properties": { "CODE": "SZ 28 SE", "RAINFALL": 738 }, "geometry": { "type": "MultiPolygon", "coordinates": [ [ [ [ 425000.0, 80000.0 ], [ 425000.0, 85000.0 ], [ 430000.0, 85000.0 ], [ 430000.0, 80000.0 ], [ 425000.0, 80000.0 ] ] ] ] } },
{ "type": "Feature", "properties": { "CODE": "SZ 28 NE", "RAINFALL": 742 }, "geometry": { "type": "MultiPolygon", "coordinates": [ [ [ [ 425000.0, 85000.0 ], [ 425000.0, 90000.0 ], [ 430000.0, 90000.0 ], [ 430000.0, 85000.0 ], [ 425000.0, 85000.0 ] ] ] ] } },
{ "type": "Feature", "properties": { "CODE": "SZ 38 SW", "RAINFALL": 738 }, "geometry": { "type": "MultiPolygon", "coordinates": [ [ [ [ 430000.0, 80000.0 ], [ 430000.0, 85000.0 ], [ 435000.0, 85000.0 ], [ 435000.0, 80000.0 ], [ 430000.0, 80000.0 ] ] ] ] } },
{ "type": "Feature", "properties": { "CODE": "SZ 38 SE", "RAINFALL": 740 }, "geometry": { "type": "MultiPolygon", "coordinates": [ [ [ [ 435000.0, 80000.0 ], [ 435000.0, 85000.0 ], [ 440000.0, 85000.0 ], [ 440000.0, 80000.0 ], [ 435000.0, 80000.0 ] ] ] ] } },
{ "type": "Feature", "properties": { "CODE": "SZ 38 NW", "RAINFALL": 745 }, "geometry": { "type": "MultiPolygon", "coordinates": [ [ [ [ 430000.0, 85000.0 ], [ 430000.0, 90000.0 ], [ 435000.0, 90000.0 ], [ 435000.0, 85000.0 ], [ 430000.0, 85000.0 ] ] ] ] } },
{ "type": "Feature", "properties": { "CODE": "SZ 38 NE", "RAINFALL": 790 }, "geometry": { "type": "MultiPolygon", "coordinates": [ [ [ [ 435000.0, 85000.0 ], [ 435000.0, 90000.0 ], [ 440000.0, 90000.0 ], [ 440000.0, 85000.0 ], [ 435000.0, 85000.0 ] ] ] ] } },
{ "type": "Feature", "properties": { "CODE": "SZ 48 SW", "RAINFALL": 758 }, "geometry": { "type": "MultiPolygon", "coordinates": [ [ [ [ 440000.0, 80000.0 ], [ 440000.0, 85000.0 ], [ 445000.0, 85000.0 ], [ 445000.0, 80000.0 ], [ 440000.0, 80000.0 ] ] ] ] } },
{ "type": "Feature", "properties": { "CODE": "SZ 48 SE", "RAINFALL": 765 }, "geometry": { "type": "MultiPolygon", "coordinates": [ [ [ [ 445000.0, 80000.0 ], [ 445000.0, 85000.0 ], [ 450000.0, 85000.0 ], [ 450000.0, 80000.0 ], [ 445000.0, 80000.0 ] ] ] ] } },
{ "type": "Feature", "properties": { "CODE": "SZ 48 NW", "RAINFALL": 818 }, "geometry": { "type": "MultiPolygon", "coordinates": [ [ [ [ 440000.0, 85000.0 ], [ 440000.0, 90000.0 ], [ 445000.0, 90000.0 ], [ 445000.0, 85000.0 ], [ 440000.0, 85000.0 ] ] ] ] } },
{ "type": "Feature", "properties": { "CODE": "SZ 48 NE", "RAINFALL": 881 }, "geometry": { "type": "MultiPolygon", "coordinates": [ [ [ [ 445000.0, 85000.0 ], [ 445000.0, 90000.0 ], [ 450000.0, 90000.0 ], [ 450000.0, 85000.0 ], [ 445000.0, 85000.0 ] ] ] ] } },
{ "type": "Feature", "properties": { "CODE": "SZ 58 SW", "RAINFALL": 941 }, "geometry": { "type": "MultiPolygon", "coordinates": [ [ [ [ 450000.0, 80000.0 ], [ 450000.0, 85000.0 ], [ 455000.0, 85000.0 ], [ 455000.0, 80000.0 ], [ 450000.0, 80000.0 ] ] ] ] } },
{ "type": "Feature", "properties": { "CODE": "SZ 58 SE", "RAINFALL": 941 }, "geometry": { "type": "MultiPolygon", "coordinates": [ [ [ [ 455000.0, 80000.0 ], [ 455000.0, 85000.0 ], [ 460000.0, 85000.0 ], [ 460000.0, 80000.0 ], [ 455000.0, 80000.0 ] ] ] ] } },
{ "type": "Feature", "properties": { "CODE": "SZ 58 NW", "RAINFALL": 923 }, "geometry": { "type": "MultiPolygon", "coordinates": [ [ [ [ 450000.0, 85000.0 ], [ 450000.0, 90000.0 ], [ 455000.0, 90000.0 ], [ 455000.0, 85000.0 ], [ 450000.0, 85000.0 ] ] ] ] } },
{ "type": "Feature", "properties": { "CODE": "SZ 58 NE", "RAINFALL": 912 }, "geometry": { "type": "MultiPolygon", "coordinates": [ [ [ [ 455000.0, 85000.0 ], [ 455000.0, 90000.0 ], [ 460000.0, 90000.0 ], [ 460000.0, 85000.0 ], [ 455000.0, 85000.0 ] ] ] ] } },
{ "type": "Feature", "properties": { "CODE": "SZ 68 SW", "RAINFALL": 889 }, "geometry": { "type": "MultiPolygon", "coordinates": [ [ [ [ 460000.0, 80000.0 ], [ 460000.0, 85000.0 ], [ 465000.0, 85000.0 ], [ 465000.0, 80000.0 ], [ 460000.0, 80000.0 ] ] ] ] } },
{ "type": "Feature", "properties": { "CODE": "SZ 68 NW", "RAINFALL": 915 }, "geometry": { "type": "MultiPolygon", "coordinates": [ [ [ [ 460000.0, 85000.0 ], [ 460000.0, 90000.0 ], [ 465000.0, 90000.0 ], [ 465000.0, 85000.0 ], [ 460000.0, 85000.0 ] ] ] ] } },
{ "type": "Feature", "properties": { "CODE": "SZ 68 NE", "RAINFALL": 891 }, "geometry": { "type": "MultiPolygon", "coordinates": [ [ [ [ 465000.0, 85000.0 ], [ 465000.0, 90000.0 ], [ 470000.0, 90000.0 ], [ 470000.0, 85000.0 ], [ 465000.0, 85000.0 ] ] ] ] } },
{ "type": "Feature", "properties": { "CODE": "SZ 39 SE", "RAINFALL": 769 }, "geometry": { "type": "MultiPolygon", "coordinates": [ [ [ [ 435000.0, 90000.0 ], [ 435000.0, 95000.0 ], [ 440000.0, 95000.0 ], [ 440000.0, 90000.0 ], [ 435000.0, 90000.0 ] ] ] ] } },
{ "type": "Feature", "properties": { "CODE": "SZ 49 SW", "RAINFALL": 774 }, "geometry": { "type": "MultiPolygon", "coordinates": [ [ [ [ 440000.0, 90000.0 ], [ 440000.0, 95000.0 ], [ 445000.0, 95000.0 ], [ 445000.0, 90000.0 ], [ 440000.0, 90000.0 ] ] ] ] } },
{ "type": "Feature", "properties": { "CODE": "SZ 49 SE", "RAINFALL": 808 }, "geometry": { "type": "MultiPolygon", "coordinates": [ [ [ [ 445000.0, 90000.0 ], [ 445000.0, 95000.0 ], [ 450000.0, 95000.0 ], [ 450000.0, 90000.0 ], [ 445000.0, 90000.0 ] ] ] ] } },
{ "type": "Feature", "properties": { "CODE": "SZ 49 NE", "RAINFALL": 798 }, "geometry": { "type": "MultiPolygon", "coordinates": [ [ [ [ 445000.0, 95000.0 ], [ 445000.0, 100000.0 ], [ 450000.0, 100000.0 ], [ 450000.0, 95000.0 ], [ 445000.0, 95000.0 ] ] ] ] } },
{ "type": "Feature", "properties": { "CODE": "SZ 59 SW", "RAINFALL": 870 }, "geometry": { "type": "MultiPolygon", "coordinates": [ [ [ [ 450000.0, 90000.0 ], [ 450000.0, 95000.0 ], [ 455000.0, 95000.0 ], [ 455000.0, 90000.0 ], [ 450000.0, 90000.0 ] ] ] ] } },
{ "type": "Feature", "properties": { "CODE": "SZ 59 SE", "RAINFALL": 872 }, "geometry": { "type": "MultiPolygon", "coordinates": [ [ [ [ 455000.0, 90000.0 ], [ 455000.0, 95000.0 ], [ 460000.0, 95000.0 ], [ 460000.0, 90000.0 ], [ 455000.0, 90000.0 ] ] ] ] } },
{ "type": "Feature", "properties": { "CODE": "SZ 59 NW", "RAINFALL": 845 }, "geometry": { "type": "MultiPolygon", "coordinates": [ [ [ [ 450000.0, 95000.0 ], [ 450000.0, 100000.0 ], [ 455000.0, 100000.0 ], [ 455000.0, 95000.0 ], [ 450000.0, 95000.0 ] ] ] ] } },
{ "type": "Feature", "properties": { "CODE": "SZ 69 SW", "RAINFALL": 918 }, "geometry": { "type": "MultiPolygon", "coordinates": [ [ [ [ 460000.0, 90000.0 ], [ 460000.0, 95000.0 ], [ 465000.0, 95000.0 ], [ 465000.0, 90000.0 ], [ 460000.0, 90000.0 ] ] ] ] } }
]
}
